{
    "links": {
        "self": "http://www.neowsapp.com/rest/v1/neo/3709248?api_key=iIulBulltgU6a56xZRHN4H3l9WmuAYTsLGpBGhQ2"
    },
    "id": "3709248",
    "neo_reference_id": "3709248",
    "name": "(2015 BW512)",
    "designation": "2015 BW512",
    "nasa_jpl_url": "http://ssd.jpl.nasa.gov/sbdb.cgi?sstr=3709248",
    "absolute_magnitude_h": 25.2,
    "estimated_diameter": {
        "kilometers": {
            "estimated_diameter_min": 0.0242412481,
            "estimated_diameter_max": 0.0542050786
        },
        "meters": {
            "estimated_diameter_min": 24.2412481101,
            "estimated_diameter_max": 54.2050786336
        },
        "miles": {
            "estimated_diameter_min": 0.0150628086,
            "estimated_diameter_max": 0.0336814639
        },
        "feet": {
            "estimated_diameter_min": 79.5316564495,
            "estimated_diameter_max": 177.8381901842
        }
    },
    "is_potentially_hazardous_asteroid": false,
    "close_approach_data": [
        {
            "close_approach_date": "2015-01-24",
            "close_approach_date_full": "2015-Jan-24 05:19",
            "epoch_date_close_approach": 1422076740000,
            "relative_velocity": {
                "kilometers_per_second": "10.0378749472",
                "kilometers_per_hour": "36136.3498098934",
                "miles_per_hour": "22453.7224693751"
            },
            "miss_distance": {
                "astronomical": "0.0290651733",
                "lunar": "11.3063524137",
                "kilometers": "4348088.016860871",
                "miles": "2701776.6106311798"
            },
            "orbiting_body": "Earth"
        }
    ],
    "orbital_data": {
        "orbit_id": "5",
        "orbit_determination_date": "2017-04-06 08:35:59",
        "first_observation_date": "2015-01-27",
        "last_observation_date": "2015-02-06",
        "data_arc_in_days": 10,
        "observations_used": 11,
        "orbit_uncertainty": "8",
        "minimum_orbit_intersection": ".0119188",
        "jupiter_tisserand_invariant": "3.560",
        "epoch_osculation": "2457050.5",
        "eccentricity": ".5495073009247328",
        "semi_major_axis": "2.077194743005088",
        "inclination": "2.640280383741045",
        "ascending_node_longitude": "103.1735987470901",
        "orbital_period": "1093.488573190998",
        "perihelion_distance": ".9357610662813181",
        "perihelion_argument": "345.2130765063616",
        "aphelion_distance": "3.218628419728858",
        "perihelion_time": "2457020.508460070191",
        "mean_anomaly": "9.873861181030696",
        "mean_motion": ".3292215472809695",
        "equinox": "J2000",
        "orbit_class": {
            "orbit_class_type": "APO",
            "orbit_class_description": "Near-Earth asteroid orbits which cross the Earth’s orbit similar to that of 1862 Apollo",
            "orbit_class_range": "a (semi-major axis) > 1.0 AU; q (perihelion) < 1.017 AU"
        }
    },
    "is_sentry_object": false
}